Name,Category,Address,Hours,Phone
Miami Realty Solution Group,Real estate agency,,"90 SW 3rd St CU3
Open ⋅ Closes 6:30 pm",+1 305-728-0840
Properties Miami,Real estate agency,"637 SW 3rd St APT 306
Open ⋅ Closes 10 pm",+1 786-505-4939,
"Florida Realty Of Miami, Corp.",Real estate agency,,"9415 Sunset Dr #236
Closes soon ⋅ 5 pm ⋅ Opens 9 am Fri",+1 305-598-5488
David Freed Realtor | Miami Is Home | Keller Williams Realty,Real estate agency,,"45 SW 9th St Apt 3006
Open 24 hours",+1 954-263-8115
Chariff Realty Group Commercial Miami Real Estate,Commercial real estate agency,,"5801 Biscayne Blvd
Open ⋅ Closes 8 pm",+1 305-576-7474
Lauren Hershey - CRR REALTY,Real estate agency,,"1200 Brickell Ave Suite #700
Open ⋅ Closes 7 pm",+1 708-539-9319
LG Realty Group Inc. Miami Luxury Real Estate,Real estate agency,,"3250 NE 1st Ave Unit 305
Open ⋅ Closes 7 pm",+1 305-890-6226
Avanti Way Realty Brickell,Real estate agency,,"444 Brickell Ave Office P32
Open ⋅ Closes 6 pm",+1 305-733-9741
Miami Luxury Homes,Real estate agency,,"3059 Grand Ave Suite 340
Open ⋅ Closes 9 pm",+1 305-350-9842
"Sebastian Acosta, Realtor in Miami ️",Real estate agency,,"800 Brickell Ave Suite 525
Open ⋅ Closes 7 pm",+1 305-244-6222
The World Realty,Real estate agency,,"1221 Brickell Ave Suite 900
Open 24 hours",+1 305-760-9121
"Louis Urbina, PA - Realtor Associate at Avanti Way Realty in Miami, FL",Real estate agency,,"444 Brickell Ave P32
Open 24 hours",+1 786-355-7423
Eric Farmelant - COMPASS,Real estate agency,,"2550 S Bayshore Dr STE 106
Open ⋅ Closes 9 pm",+1 954-850-3905
Aleksandra Marzec,Real estate agency,,"1221 Brickell Ave Suite 900
Open 24 hours",+1 305-760-9121
Coldwell Banker Realty: Oliver Ruiz,Real estate agent,,"4000 Ponce de Leon Suite 700
Open ⋅ Closes 6 pm",+1 305-984-4875
DREAM LAND GROUP REAL ESTATE,Real estate agency,,"1100 Brickell Bay Dr
Open 24 hours",+1 305-417-5859
Real Brokers Miami – Real Estate Broker & Concierge,Real estate agency,,"601 Brickell Key Dr #700
Open ⋅ Closes 7 pm",+1 305-423-9551
Guillermo Teran Group Real Estate,Real estate agency,,"444 Brickell Ave Office P32
Open ⋅ Closes 8 pm",+1 305-457-9609
Midtown Miami Realty,Real estate agent,,"121 NE 34th St
Open ⋅ Closes 9 pm",+1 305-302-4941
Rina Rodriguez | Real Estate Agent | Miami | Buy • Sell • Rent • Invest | Bilingual: English & Spanish,Real estate agent,,"800 Brickell Ave Suite 525
Open 24 hours",+1 305-440-7407
Jill Penman Group at ONE Sotheby's International Realty,Real estate agent,"3560 Main Highway
Open ⋅ Closes 9 PM",(305) 807-9199,
Douglas Elliman - David Nguah Group,Real estate agency,"1111 Lincoln Road
Open ⋅ Closes 8 PM",(786) 200-3966,
Eric Farmelant - COMPASS,Real estate agency,,"2550 S Bayshore Dr STE 106
Open ⋅ Closes 9 PM",+1 954-850-3905
Amistad Real Estate Miami,Real estate agency,,"7951 Bird Rd # 208
Open ⋅ Closes 7 PM",+1 786-244-6844
Real Brokers Miami – Real Estate Broker & Concierge,Real estate agency,,"601 Brickell Key Dr #700
Open ⋅ Closes 7 PM",+1 305-423-9551
Casas en Miami - Bahia International Realty,Real estate agency,,"8400 NW 33rd St #105
Open ⋅ Closes 9 PM",+1 305-423-9954
Matt Lill - Luxury Real Estate Agent - Corcoran Miami Beach - South Florida Expert,Real estate agency,,"1688 Meridian Ave Ste 400
Open ⋅ Closes 9 PM",+1 786-769-5025
Trident Real Estate & Trident Management,Real estate agency,"800 West Ave C1
Closes soon ⋅ 5 PM ⋅ Opens 9 AM Fri",+1 305-535-7599,
"Beautiful Miami Team, Kathrin Rein PA",Real estate consultant,,"2550 SW 27th Ave APT 101
Open 24 hours",+1 305-735-6939
Midtown Miami Now,Real estate agency,,"3250 NE 1st Ave Unit 305
Open ⋅ Closes 7 PM",+1 305-890-6226
The Opes Group at Compass,Real estate agency,,"1515 Sunset Dr Suite 40
Open 24 hours",+1 305-902-1874
Monteiro International Realty Corp.,Real estate agency,,"1110 Brickell Ave STE 404
Closes soon ⋅ 5 PM ⋅ Opens 9 AM Fri",+1 305-385-6693
Nelson Gonzalez | Miami Beach Luxury Real Estate,Real estate consultant,,"419 Arthur Godfrey Rd
Open ⋅ Closes 7 PM",+1 305-674-4040
Riley Smith Group | Best Miami Realtors,Real estate agency,,"2550 S Bayshore Dr STE 106
Open 24 hours",+1 305-342-1623
Jose Fuentes Real Estate Broker Fortune Christie's International,Real estate agency,,"1390 Brickell Ave #104
Open 24 hours",+1 786-439-6764
Guillermo Teran Group Real Estate,Real estate agency,,"444 Brickell Ave Office P32
Open ⋅ Closes 8 PM",+1 305-457-9609
Miami Premier Realty,Real estate agency,,"7001 SW 97th Ave Suite 108
Closes soon ⋅ 5 PM ⋅ Opens 10 AM Fri",+1 786-268-1961
Ancona Real Estate Inc.,Real estate agency,,"1666 John F Kennedy Causeway #200
Open ⋅ Closes 8 PM",+1 305-456-8718
Equity Real Estate South Florida,Real estate agency,,"8950 SW 74th Ct Suite 2201
Open ⋅ Closes 9 PM",+1 786-281-6026
NB Elite Realty LLC,Real estate agency,"1111 Lincoln Road
Open ⋅ Closes 8 PM",(786) 200-3966,
Miami Real Estate - Jack Coden Group,Real estate agency,,"700 NE 90th St
Open 24 hours",+1 305-742-5225
Miami Realtor Services | Jocsan Lopez,Real estate agency,,"5555 Biscayne Blvd # 302
Open ⋅ Closes 8 PM",+1 786-326-1198
"Manulani C. Acosta, PA - We Are Miami, LLC.",Real estate agency,"5201 Waterford District Dr Ste. 812
Closes soon ⋅ 5 PM ⋅ Opens 10 AM Fri",+1 305-970-7757,
Hal Feldman - Miami Real Estate Agent,Real estate agency,,"5792 Sunset Dr
Open ⋅ Closes 10 PM",+1 786-693-2005
United Real Estate Miami,Real estate agency,,"11430 N Kendall Dr #111
Closes soon ⋅ 5 PM ⋅ Opens 9 AM Fri",+1 305-273-9000
Blackbook Properties,Real estate agency,,"1900 N Bayshore Dr Suite 1A #103
Open 24 hours",+1 786-400-2296
Deconova Real Estate Brickell Miami FL,Real estate agency,,"1000 Brickell Ave SUITE 2D-200
Open ⋅ Closes 5 AM Fri",+1 786-581-3100
SF Real Estate. US,Real estate agency,,"1110 Brickell Ave
Open ⋅ Closes 7 PM",+1 786-443-1449
Abner Realty,Real estate agency,,"690 SW 1st Ct
Open ⋅ Closes 6 PM",+1 305-222-7513
"Abraham Ash, Realtor",Real estate agency,,"495 Brickell Ave # 521
Open ⋅ Closes 9 PM",+1 305-586-9734
Miami Realtor Patricia Vega,Real estate agency,,"8660 W Flagler St # 205
Open ⋅ Closes 7 PM",+1 305-773-1631
"Charter Club Realty, Inc.",Real estate agency,,"600 NE 36th St STE C2
Open 24 hours",+1 305-576-6252
Joe Biscaha - Joe Sells Miami - Compass,Real estate agency,,"605 Lincoln Rd 7th floor
Open ⋅ Closes 6 PM",+1 786-881-9894
"Jose Luis Herrera - Realtor | Broker, Miami Office",Real estate agent,,"2470 NW 102nd Pl # 107
Open 24 hours",+1 786-332-0991
SidSidan.RealEstate,Real estate agency,,"801 Brickell Ave Lobby Office
Closes soon ⋅ 5 PM ⋅ Opens 9:30 AM Fri",+1 305-890-0145
Gravity Real Estate | Top Miami Realtors,Real estate agency,,"1390 S Dixie Hwy Suite 2218
Open 24 hours",+1 305-726-2100
Cervera Real Estate Inc | Headquarters,Real estate agency,,"1450 S Miami Ave
Closes soon ⋅ 5 PM ⋅ Opens 9 AM Fri",+1 305-374-3434
"Milton Andrade, REALTOR - Compass",Real estate agency,,"1655 SW 18th St
Open ⋅ Closes 7 PM",+1 785-530-3942
Sarah Desamours - Miami Real Estate - SD Group At Compass,Real estate agent,,"2550 S Bayshore Dr STE 106
Open ⋅ Closes 7 PM",+1 305-363-6055
Million | Redefine Lifestyle,Real estate agency,,"237 S Dixie Hwy 4th Fl Suite 465
Open ⋅ Closes 10 PM",+1 305-407-1415
Smart Miami Realty LLC,Real estate agency,,"9831 NW 58th St UNIT 141
Open ⋅ Closes 6 PM",+1 786-300-6180
Jerome Morlot PA - Miami Real Estate - Immobilier,Real estate agent,,"961 SW 7th St Apt 302
Open 24 hours",+1 786-564-7790
"Manuel E Gonzalez, PA- Florida Realty Miami",Real estate agency,,"9415 SW 72nd St #236
Open 24 hours",+1 305-676-8543
Marcelo Steinmander P.A | Miami Beach Real Estate Agent,Real estate agent,,"419 Arthur Godfrey Rd
Closes soon ⋅ 5 PM ⋅ Opens 9 AM Fri",+1 305-674-4127
"JMC Real Estate Miami, Jorge Martinez de Castro, Licensed Real Estate Broker",Real estate agency,,"9100 S Dadeland Blvd suite 1500
Closes soon ⋅ 5 PM ⋅ Opens 9 AM Fri",+1 305-510-5589
Sorymar Castillo | Your Favorite Miami Realtor,Real estate agent,,"999 Brickell Ave Ste. 840
Open ⋅ Closes 10 PM",+1 786-818-2081
Phantom Real Estate,Real estate agency,,"9995 SW 72nd St STE 209
Closes soon ⋅ 5 PM ⋅ Opens 9 AM Fri",+1 305-595-6804
APEX Capital Realty,Commercial real estate agency,,"561 NE 79th St Suite 420
Open ⋅ Closes 6 PM",+1 305-570-2600
London Foster,Real estate agency,,"407 Lincoln Rd #10G
Open ⋅ Closes 9 PM",+1 844-566-3663
Kennedy Realty Miami - Luxury Coral Gables Agents,"Real estate agency
Open ⋅ Closes 8 PM",+1 786-882-2532,,
"Matt McMillan, Realtor in Miami Beach - Coldwell Banker",Real estate agency,,"1682 Jefferson Ave
Open ⋅ Closes 7 PM",+1 305-775-8269
Move Miami - Real Estate,Real estate agency,,"8660 W Flagler St STE 100
Open ⋅ Closes 6 PM",+1 305-301-0525
"Natalie Mery, Miami Real Estate Agent",Real estate agent,,"398 NE 5th St 13th Floor
Open ⋅ Closes 6:30 PM",+1 305-905-9027
Elite Real Estate Associates,Real estate agency,,"12905 SW 42nd St #207
Open ⋅ Closes 7 PM",+1 305-301-5100
Jason Smith Showcase,Real estate agency,,"65 Morningside Dr
Open 24 hours",+1 786-326-8115
LaFrance Louis Realty,Real estate agency,,"1221 Brickell Ave Brickell, Suite 900
Open 24 hours",+1 954-882-6478
Howard Chase Real Estate,Real estate agency,,"1354 Washington Ave
Open 24 hours",+1 305-532-7470
"Miami Metro Realty, LLC",Real estate agency,,"1535 SW 87th Ave
Open ⋅ Closes 8 PM",+1 305-707-4546
REALZUN REALTY,Real estate agency,,"7630 W Flagler St office b
Closes soon ⋅ 5 PM ⋅ Opens 10 AM Fri",+1 786-853-0066
RISE Realty,Commercial real estate agency,,"1111 Brickell Ave
Open ⋅ Closes 6:30 PM",+1 305-859-1606
Dream Life Realty,Real estate agency,,"1701 Ponce de Leon #206
Open ⋅ Closes 6 PM",
Centennial Realty Group - Real Estate Agents & Brokers Miami,Real estate agency,,"8200 NW 41st St Suite 200
Open 24 hours",+1 954-854-6668
Adrian Burke Luxury Real Estate | Sotheby's Realty,Real estate agency,,"119 Washington Ave Suite 102
Open 24 hours",+1 305-397-4733
"Jonathan Quintana, P.A",Real estate agent,,"3252 SW 2nd St
Open ⋅ Closes 7 PM",+1 305-801-1893
The Branco Team - Miami Realtors,Real estate agent,,"2125 Biscayne Blvd Suite 348
Open 24 hours",+1 305-407-5351
"Tony Scornavacca, Grove Properties",Real estate agency,,"3936 Main Hwy
Open 24 hours",+1 305-283-7112
Interinvestments Realty,Real estate agency,,"790 NW 107th Ave Suite 107
Closes soon ⋅ 5 PM ⋅ Opens 9 AM Fri",+1 305-220-1101
COSMORE - Real Estate Agency,Real estate agency,,"1200 Brickell Ave #250
Open ⋅ Closes 6 PM",+1 786-536-2344
ONE Sotheby's International Realty,Real estate agency,,"800 Brickell Ave Suite 525
Closes soon ⋅ 5 PM ⋅ Opens 9 AM Fri",+1 305-859-3824
"IQ Real Estate, LLC",Real estate agency,,"1925 Brickell Ave STE D205
Open ⋅ Closes 6 PM",+1 786-530-9371
Lina & Elliot Group // Top Producing Miami Realtors,Real estate consultant,,"1111 Lincoln Rd #805
Open 24 hours",+1 626-757-4484
Miami Grand Realty INC,Real estate agency,,"6855 SW 81st St
Closes soon ⋅ 5 PM ⋅ Opens 9 AM Fri",+1 954-540-3455
Jessica Bazan - Miami Real Estate,Real estate consultant,,"700 NE 90th St
Open ⋅ Closes 7 PM",+1 786-213-5333
Century 21 World Connection,Real estate agency,,"10701 SW 104th St
Open ⋅ Closes 7 PM",+1 786-900-0155
Miami Real Estate Agency,Real estate agency,,"930 Washington Ave SUITE 203
Closes soon ⋅ 5 PM ⋅ Opens 8 AM Fri",+1 786-322-8399
Tina Hyde Miami Realty,Real estate agency,,"150 SE 2nd Ave 3rd floor
Closes soon ⋅ 5 PM ⋅ Opens 9 AM Fri",
MIAMI DREAM PROPERTIES,Real estate agency,,"218 NW 24th St
Closed ⋅ Opens 10 AM Fri",+1 305-728-8800
Interealty Exchange Inc,Real estate agency,,"460 NE 28th St CU1
Open ⋅ Closes 6 PM",+1 786-717-4417
The Valenzuela Real Estate Group,Real estate agency,,"730 NW 107th Ave #410
Closes soon ⋅ 5 PM ⋅ Opens 9 AM Fri",+1 305-776-4866
Miami Real Estate Trends,Real estate agent,,"110 Washington Ave
Open ⋅ Closes 7 PM",+1 305-571-6319
Fortune Real Estate Services,Industrial real estate agency,,"801 Brickell Bay Dr APT 1966
Open ⋅ Closes 6 PM",+1 305-587-4200
Miami Real Estate Broker,Real estate agency,,"1861 NW S River Dr
Open 24 hours",+1 305-469-8090
Stefania Mogollon,Real estate agent,,"79 SW 12th St APT 1706
Open ⋅ Closes 7 PM",+1 305-306-7205
Elizabeth Mesa - Miami Realtor,Real estate agent,,"800 Brickell Ave Suite 525
Open 24 hours",+1 305-804-1549
Miami Real Estate Agent & Coach | Hans Waisfeld,Industrial real estate agency,,"920 Bay Dr apt 8
Open ⋅ Closes 7 PM",+1 305-497-2352
ROCCA REAL ESTATE,Real estate agent,,"1221 Brickell Ave Suite 900
Open ⋅ Closes 8 PM",+1 310-977-7993
Jenny Serra Realtor,Real estate agent,"601 Brickell Key Dr #700
Open 24 hours",+1 305-979-1851,
Address Real Estate LLC,Real estate agent,,"55 Merrick Way Suite 202A- 2
Open 24 hours",+1 786-664-8661
Terry & Terry Co. Condo Rentals + Real Estate Services,Condominium rental agency,,"150 SE 2nd Ave Ste 300
Open 24 hours",+1 305-907-7028
BrokerNation Real Estate Doral,Real estate agency,,"2555 NW 102nd Ave Suite 100
Closes soon ⋅ 5 PM ⋅ Opens 9 AM Fri",+1 305-508-9893
EXCLUSIVE PREMIER REALTY,Real estate agency,,"1250 SW 27th Ave # 301
Open ⋅ Closes 6 PM",+1 800-288-5791
Gomez Realty Group,Real estate agency,,"1900 N Bayshore Dr Suite 1A #142
Open ⋅ Closes 7 PM",+1 305-305-5678
"Sharon Colon, REALTOR MIAMI brokered by REAL Broker, LLC - Miami, FL | Real Estate Agent Miami",Real estate agent,,"10450 NW 33rd St, Doral
Open ⋅ Closes 7 PM",+1 786-376-2398
Cristian Chavez & Nik Alvarez Realtors from Miami Home Hub with Keller Williams Realty,Real estate agent,,"550 Biltmore Way PH2
Open ⋅ Closes 7 PM",+1 786-214-1087
Julia Grollier - Realtor Miami Florida,Real estate agent,,"325 S Biscayne Blvd #200
Open ⋅ Closes 6 PM",+1 321-732-1557
The 305 Agency | Real Estate | Miami,Real estate agency,,"910 West Ave
Open 24 hours",+1 305-713-9891
Urbanize Properties Corp,Commercial real estate agency,,"860 NE 74th St
Open ⋅ Closes 6 PM",+1 305-318-6366
Coldwell Banker Realty - Miami Beach Lincoln Building,Real estate agency,,"1682 Jefferson Ave
Closes soon ⋅ 5 PM ⋅ Opens 9 AM Fri",+1 305-672-6300
LoKation Real Estate,Real estate agency,,"1900 N Bayshore Dr Suite 120
Closes soon ⋅ 5 PM ⋅ Opens 8:30 AM Fri",+1 305-420-6613
Kelby Contreras | Florida's Luxury Real Estate Specialist,Real estate agent,,"605 Lincoln Rd
Open ⋅ Closes 8 PM",+1 754-777-8166
Atlantic Square,Apartment Letting Agency,"777 Northwest 2nd Avenue
Open ⋅ Closes 6 pm",(305) 306-4691,
Jill Penman Group at ONE Sotheby's International Realty,Estate agent,"3560 Main Highway
Open ⋅ Closes 9 pm",(305) 807-9199,
Nancy Batchelor Team,Real estate agency,,"605 Lincoln Rd Floor 7
Open ⋅ Closes 7 pm",+1 305-903-2850
Miami Realtor Services | Jocsan Lopez,Real estate agency,,"5555 Biscayne Blvd # 302
Open ⋅ Closes 8 pm",+1 786-326-1198
Atlantic Square,Apartment rental agency,"777 Northwest 2nd Avenue
Open ⋅ Closes 6 PM",(305) 306-4691,
Nancy Batchelor Team,Real estate agency,,"605 Lincoln Rd Floor 7
Open ⋅ Closes 7 PM",+1 305-903-2850
Mariana Garber PA at Coldwell Banker Global Luxury Miami,Real estate agency,,"328 Crandon Blvd Ste 127
Open 24 hours",+1 786-280-2770
"Dania Diaz, Realtor - RE/MAX Advance Realty",Real estate agent,,"5796 Sunset Dr
Open 24 hours",+1 786-380-5180
Properties of Miami,Real estate agency,,"8950 SW 74th Ct Suite 2201
Open 24 hours",+1 786-715-8190
Gabriela Fruchtermann PA,Real estate agency,,"2822 NW 79th Ave
Open ⋅ Closes 6 PM",+1 786-438-9895
Elite Ocean View Realty,Real estate agency,,"210 71st St suite 305
Closes soon ⋅ 5 PM ⋅ Opens 8 AM Fri",+1 305-600-1278
"First Class Real Estate, LLC",Real estate agency,,"12944 W Dixie Hwy
Open ⋅ Closes 10 PM",+1 305-433-5686
Miami Real Estate Agent Bryan Roach,Real estate agent,,"8180 NW 36th St #308
Open 24 hours",+1 305-439-6211
NB Elite Realty LLC,Real estate agency,,"1101 Brickell Ave
Closes soon ⋅ 5:30 PM ⋅ Opens 9 AM Fri",+1 844-444-6237
"Hector Chinea, Realtor powered by Real Broker LLC",Real estate agent,,"8567 Coral Wy #256
Open ⋅ Closes 7 PM",+1 786-236-4268
WiseCat Realtors,Real estate agency,,"1354 Washington Ave #220
Open 24 hours",+1 305-523-9323
Florida New Dream Corp | Real Estate Agency in North Miami,Real estate agency,,"12955 Biscayne Blvd Ste 410-4
Closes soon ⋅ 5 PM ⋅ Opens 9 AM Fri",+1 786-762-4249
The Space Brokers,Real estate agency,,"333 SE 2nd Ave STE 2000
Open ⋅ Closes 7 PM",+1 305-646-9653
Tatiana Costa P.A. | #CostaGroup,Real estate agency,,"Fortune Christie’s International Real Estate, 1390 Brickell Ave #104
Open 24 hours",+1 305-733-8990
Sean Fitzgerald - Miami Real Estate Agent,Real estate agent,,"45 SW 9th St
Open 24 hours",+1 716-517-6064
OfCourseMiami - Immobilier / Real Estate,Real estate agency,,"927 Lincoln Rd #200
Open ⋅ Closes 6 PM",+1 305-934-2870
Alex Rojas - Keller Williams Real Estate Agent,Real estate agent,,"2384 SW 4th St
Open ⋅ Closes 6 PM",+1 786-558-6150
Miami Waterfront Realty,Real estate agency,,"13205 NE 16th Ave
Open ⋅ Closes 10 PM",+1 305-970-2884
Thine Agency,Real estate agency,,"225 Collins Ave #101
Open ⋅ Closes 6 PM",+1 305-609-5500
"Anthony Spitaleri, Miami, Florida Realtor",Real estate agency,,"420 Lincoln Rd
Open ⋅ Closes 9 PM",+1 954-235-5783
Daniela Silva Real Estate - Miami Realtor,Real estate agency,,"1900 N Bayshore Dr
Open ⋅ Closes 7:30 PM",+1 786-316-3703
Carlton International Real Estate,Real estate agency,,"333 SE 2nd Ave STE 2000
Open ⋅ Closes 6:30 PM",+1 305-735-1221
Maria Macias- Compass Miami Realtor,Real estate agent,,"1515 Sunset Dr Suite 40
Open 24 hours",+1 786-402-7482
Alain Oliveros P.A Miami Luxury Real Estate Agent,Real estate agent,,"255 Alhambra Cir
Open 24 hours",+1 786-925-0466
Diana Tello Miami Real Estate Agent,Real estate agent,,"951 Brickell Ave
Open ⋅ Closes 7 PM",+1 919-200-5027
Mayell Real Estate Miami,Real estate agency,,"78 SW 7th St Fl 4
Open 24 hours",+1 929-220-2068
C21 Dorar Realty,Real estate agency,,"7281 Coral Wy
Open now",+1 305-264-6000
Miami New Realty,Real estate agency,,"2470 NW 102nd Pl # 107
Open ⋅ Closes 6 PM",+1 305-485-3100
Keller Williams Miami Beach,Real estate agency,,"1680 Meridian Ave #101
Closes soon ⋅ 5 PM ⋅ Opens 9 AM Fri",
Luis Perez - Realtor Miami Florida,Real estate agent,,"7281 Coral Wy
Open 24 hours",+1 786-376-7182
Ernie Fraga - EXP Realty - Miami Real Estate,Real estate agency,"6300 Waterford District Dr
Open ⋅ Closes 8 PM",+1 305-546-8996,
Juan Carlos Romero - Miami Realtor,Real estate agent,,"1000 Brickell Ave #200
Open ⋅ Closes 7 PM",+1 305-903-0728
Suheily Canales,"Real estate agency
Open ⋅ Closes 6 PM",+1 305-680-8255,,
David Freed Realtor | Miami Is Home | Keller Williams Realty,Real estate agent,,"45 SW 9th St Apt 3006
Open 24 hours",+1 954-263-8115
Lauren Hershey - CRR REALTY,Real estate agent,,"1200 Brickell Ave Suite #700
Open ⋅ Closes 7 pm",+1 708-539-9319
Chariff Realty Group Commercial Miami Real Estate,Real estate agent,,"5801 Biscayne Blvd
Open ⋅ Closes 8 pm",+1 305-576-7474
LG Realty Group Inc. Miami Luxury Real Estate,Real estate agent,,"3250 NE 1st Ave Unit 305
Open ⋅ Closes 7 pm",+1 305-890-6226
"Sebastian Acosta, Realtor in Miami ️",Real estate agent,,"800 Brickell Ave Suite 525
Open ⋅ Closes 7 pm",+1 305-244-6222
Real Brokers Miami – Real Estate Broker & Concierge,Real estate agent,,"601 Brickell Key Dr #700
Open ⋅ Closes 7 pm",+1 305-423-9551
Miami Real Estate - Jack Coden Group,Real estate agent,,"700 NE 90th St
Open 24 hours",+1 305-742-5225
Steven Vargas and Chloe Vargas,Real estate agent,,"325 S Biscayne Blvd #200
Open 24 hours",+1 786-683-2938
Sorymar Castillo | Your Favorite Miami Realtor,Real estate agent,,"999 Brickell Ave Ste. 840
Open ⋅ Closes 10 pm",+1 786-818-2081
Aleksandra Marzec,Real estate agent,,"1221 Brickell Ave Suite 900
Open 24 hours",+1 305-760-9121
"Abraham Ash, Realtor",Real estate agent,,"495 Brickell Ave # 521
Open ⋅ Closes 9 pm",+1 305-586-9734
Eric Farmelant - COMPASS,Real estate agent,,"2550 S Bayshore Dr STE 106
Open ⋅ Closes 9 pm",+1 954-850-3905
The World Realty,Real estate agent,,"1221 Brickell Ave Suite 900
Open 24 hours",+1 305-760-9121
Jose Fuentes Real Estate Broker Fortune Christie's International,Real estate agent,,"1390 Brickell Ave #104
Open 24 hours",+1 786-439-6764
"Pilar Saravia, Best Miami Realtor",Real estate agent,,"7381 SW 34th Terrace
Open 24 hours",+1 305-205-7379
Miami Realtor Patricia Vega,Real estate agent,,"8660 W Flagler St # 205
Open ⋅ Closes 7 PM",+1 305-773-1631
"Abraham Ash, Realtor",Real estate agent,,"495 Brickell Ave # 521
Open ⋅ Closes 9 PM",+1 305-586-9734
Nancy Batchelor Team,Real estate agent,,"605 Lincoln Rd Floor 7
Open ⋅ Closes 7 PM",+1 305-903-2850
Guillermo Teran Group Real Estate,Real estate agent,,"444 Brickell Ave Office P32
Open ⋅ Closes 8 PM",+1 305-457-9609
Alexandra Sierra - Miami Real Estate,Real estate agent,,"2550 S Bayshore Dr
Closes soon ⋅ 5 PM ⋅ Opens 9 AM Fri",+1 305-281-0175
"Florida Realty Of Miami, Corp.",Real estate agent,,"9415 Sunset Dr #236
Closes soon ⋅ 5 PM ⋅ Opens 9 AM Fri",+1 305-598-5488
Mauro Silva PA Miami - Fort Lauderdale Realtor,Real estate agent,,"1354 Washington Ave
Open ⋅ Closes 9 PM",+1 786-326-7378
Properties Miami,Real estate agent,"637 SW 3rd St APT 306
Open ⋅ Closes 10 PM",+1 786-505-4939,
"First Class Real Estate, LLC",Home insurance agency,,"12944 W Dixie Hwy
Open ⋅ Closes 10 PM",+1 305-433-5686
"Manuel E Gonzalez, PA- Florida Realty Miami",Real estate agent,,"9415 SW 72nd St #236
Open 24 hours",+1 305-676-8543
Riley Smith Group | Best Miami Realtors,Real estate agent,,"2550 S Bayshore Dr STE 106
Open 24 hours",+1 305-342-1623
Gabriela Fruchtermann PA,Real estate agent,,"2822 NW 79th Ave
Open ⋅ Closes 6 PM",+1 786-438-9895
Adrian Burke Luxury Real Estate | Sotheby's Realty,Real estate agent,,"119 Washington Ave Suite 102
Open 24 hours",+1 305-397-4733
NB Elite Realty LLC,Real estate agent,,"1101 Brickell Ave
Closes soon ⋅ 5:30 PM ⋅ Opens 9 AM Fri",+1 844-444-6237
"JMC Real Estate Miami, Jorge Martinez de Castro, Licensed Real Estate Broker",Real estate agent,,"9100 S Dadeland Blvd suite 1500
Closes soon ⋅ 5 PM ⋅ Opens 9 AM Fri",+1 305-510-5589
Abner Realty,Real estate agent,,"690 SW 1st Ct
Open ⋅ Closes 6 PM",+1 305-222-7513
Matt Lill - Luxury Real Estate Agent - Corcoran Miami Beach - South Florida Expert,Real estate agent,,"1688 Meridian Ave Ste 400
Open ⋅ Closes 9 PM",+1 786-769-5025
Amistad Real Estate Miami,Real estate agent,,"7951 Bird Rd # 208
Open ⋅ Closes 7 PM",+1 786-244-6844
"Home Miami, Team / Brokered by eXp Realty | Luz Abreu Real Estate Broker Associate",Real estate agent,,"10450 NW 33rd St Suite 206
Open 24 hours",+1 754-229-7400
"Matt McMillan, Realtor in Miami Beach - Coldwell Banker",Real estate agent,,"1682 Jefferson Ave
Open ⋅ Closes 7 PM",+1 305-775-8269
"Milton Andrade, REALTOR - Compass",Real estate agent,,"1655 SW 18th St
Open ⋅ Closes 7 PM",+1 785-530-3942
WiseCat Realtors,Real estate agent,,"1354 Washington Ave #220
Open 24 hours",+1 305-523-9323
Berenice Elguezabal - Miami Realtor,Real estate agent,,"4000 Ponce de Leon Suite 700
Open ⋅ Closes 7 PM",+1 305-301-3290
"Anthony Spitaleri, Miami, Florida Realtor",Real estate agent,,"420 Lincoln Rd
Open ⋅ Closes 9 PM",+1 954-235-5783
Hal Feldman - Miami Real Estate Agent,Real estate agent,,"5792 Sunset Dr
Open ⋅ Closes 10 PM",+1 786-693-2005
Gravity Real Estate | Top Miami Realtors,Real estate agent,,"1390 S Dixie Hwy Suite 2218
Open 24 hours",+1 305-726-2100
Tatiana Costa P.A. | #CostaGroup,Real estate agent,,"Fortune Christie’s International Real Estate, 1390 Brickell Ave #104
Open 24 hours",+1 305-733-8990
Blackbook Properties,Real estate agent,,"1900 N Bayshore Dr Suite 1A #103
Open 24 hours",+1 786-400-2296
Midtown Miami Now,Real estate agent,,"3250 NE 1st Ave Unit 305
Open ⋅ Closes 7 PM",+1 305-890-6226
Diana P Gomez | REALTOR Miami,Real estate agent,,"550 Biltmore Way PH2
Open ⋅ Closes 9 PM",+1 305-794-7294
Oliver Davis | Live Work Play Miami Group | Miami Beach Real Estate,Real estate agent,,"227 1st St #2
Open 24 hours",+1 786-530-1871
Melva Garcia - Miami Realtor,Real estate agent,,"1515 Sunset Dr Suite 40
Open ⋅ Closes 7 PM",+1 305-491-4437
Florida New Dream Corp | Real Estate Agency in North Miami,Real estate agent,,"12955 Biscayne Blvd Ste 410-4
Closes soon ⋅ 5 PM ⋅ Opens 9 AM Fri",+1 786-762-4249
Equity Real Estate South Florida,Real estate agent,,"8950 SW 74th Ct Suite 2201
Open ⋅ Closes 9 PM",+1 786-281-6026
The Jills Zeder Group Miami,Real estate agent,,"4000 Ponce de Leon Suite 700
Open ⋅ Closes 6 PM",+1 305-722-5721
"John and Ana Salt, The Salt Group - Real Estate Miami",Real estate agent,,"710 NE 126th St
Open ⋅ Closes 6 PM",+1 305-890-6003
Miami Real Estate Agency,Real estate agent,,"930 Washington Ave SUITE 203
Closes soon ⋅ 5 PM ⋅ Opens 8 AM Fri",+1 786-322-8399
Miami Waterfront Realty,Real estate agent,,"13205 NE 16th Ave
Open ⋅ Closes 10 PM",+1 305-970-2884
Dimitri Joseph | Miami Luxury Real Estate,Real estate agent,,"2550 S Bayshore Dr STE 106
Open 24 hours",
"Living Premises, Brokered by eXp Realty",Real estate agent,,"8532 SW 8th St Suite 292
Open ⋅ Closes 9:30 PM",+1 305-492-9705
LaFrance Louis Realty,Real estate agent,,"1221 Brickell Ave Brickell, Suite 900
Open 24 hours",+1 954-882-6478
"Nicolas Piedra Buena, REALTOR",Real estate agent,,"1390 Brickell Ave Suite # 420
Closes soon ⋅ 5 PM ⋅ Opens 9 AM Fri",+1 305-304-1653
"Silvia Olivera, Realtor, Miami Luxury Real Estate, Bal Harbour, Sunny Isles, Surfside",Real estate agent,,"9801 Collins Ave APT 9Q
Open ⋅ Closes 7 PM",+1 786-303-0262
BARNES Miami,Real estate agency,,"1150 SW 22nd St
Open ⋅ Closes 6 PM",+1 305-361-2233
Suheily Canales,"Real estate agent
Open ⋅ Closes 6 PM",+1 305-680-8255,,
Jason Smith Showcase,Real estate agent,,"65 Morningside Dr
Open 24 hours",+1 786-326-8115
David Siddons Group at Douglas Elliman,Real estate agent,,"1515 Sunset Dr
Open ⋅ Closes 6 PM",+1 305-508-0899
Jorge A Alvarez License Broker/ Owner of JandR Home Realty,Real estate agent,,"7765 SW 33rd Terrace
Open ⋅ Closes 9 PM",+1 786-427-0949
Victor Barroso Jr / Miami Home Sale / Vacation Rental Management,Real estate consultant,,"2520 Coral Wy #2200
Open 24 hours",+1 305-519-2158
Catalina at Miramar,Flat Complex,"4260 Southwest 117th Lane
Open ⋅ Closes 6 pm",(954) 271-5144,
The Estate Companies,Real estate developer,,"6201 SW 70th St
Closes soon ⋅ 5 pm ⋅ Opens 8:30 am Fri",+1 305-663-1002
ONE Sotheby's International Realty,Real estate agency,,"800 Brickell Ave Suite 525
Closes soon ⋅ 5 pm ⋅ Opens 9 am Fri",+1 305-859-3824
Miami Real Estate Images,"Photography service
Closes soon ⋅ 5 pm ⋅ Opens 9 am Fri",+1 305-218-8925,,
Cervera Real Estate Inc | Headquarters,Real estate agency,,"1450 S Miami Ave
Closes soon ⋅ 5 pm ⋅ Opens 9 am Fri",+1 305-374-3434
Equity Real Estate South Florida,Real estate agency,,"8950 SW 74th Ct Suite 2201
Open ⋅ Closes 9 pm",+1 786-281-6026
Novel Management,Property management company,"1221 Brickell Ave Suite 900
Closes soon ⋅ 5 pm ⋅ Opens 9 am Fri",+1 305-400-9479,
Stefania Mogollon,Real estate agent,,"79 SW 12th St APT 1706
Open ⋅ Closes 7 pm",+1 305-306-7205
"Abraham Ash, Realtor",Real estate agency,,"495 Brickell Ave # 521
Open ⋅ Closes 9 pm",+1 305-586-9734
Catalina at Miramar,Apartment complex,"4260 Southwest 117th Lane
Open ⋅ Closes 6 PM",(954) 271-5144,
Lauren Hershey - CRR REALTY,Real estate agency,,"1200 Brickell Ave Suite #700
Open ⋅ Closes 7 PM",+1 708-539-9319
,Real estate agency,,"777 NW 72nd Ave
Closes soon ⋅ 5 PM ⋅ Opens 9 AM Fri",
MJ Estates,Commercial real estate agency,,"1627 SW 37th Ave Ste 101
Closes soon ⋅ 5 PM ⋅ Opens 9 AM Fri",+1 305-984-8693
Miami Residential Group,Real estate agency,,"777 Brickell Ave #500
Open 24 hours",+1 305-647-2663
NAI Miami | Fort Lauderdale,Real estate agency,,"9655 S Dixie Hwy #300
Open ⋅ Closes 6 PM",+1 305-938-4000
"Blue Moon Estate Sales (Ft.Lauderdale-Hollywood-Miami, FL)","Estate liquidator
Open ⋅ Closes 8 PM",+1 954-707-9772,,
AMG International Realty,Real estate agency,,"2420 Miami Gardens Dr Suite 203
Open ⋅ Closes 6 PM",+1 305-761-2655
Miami Luxury Residences,Real estate agency,,"333 NE 24th St
Open ⋅ Closes 9 PM",+1 305-874-9500
Comprare casa Miami Jetset Realty,Commercial real estate agency,,"1000 5th St Suite 230
Open ⋅ Closes 6 PM",+1 305-397-8831
"Douglas Elliman Real Estate Office in Miami, FL",Real estate agency,,"5555 Biscayne Blvd # 302
Closes soon ⋅ 5 PM ⋅ Opens 9 AM Fri",+1 305-677-5000
"Lana Bell - Sunny Isles, Bal Harbour, Miami Luxury Real Estate",Real estate agency,,"1021 Kane Concourse
Open ⋅ Closes 7 PM",+1 305-336-0457
"Home Miami, Team / Brokered by eXp Realty | Luz Abreu Real Estate Broker Associate",Real estate agency,,"10450 NW 33rd St Suite 206
Open 24 hours",+1 754-229-7400
David Siddons Group at Douglas Elliman,Real estate agency,,"1515 Sunset Dr
Open ⋅ Closes 6 PM",+1 305-508-0899
Avanti Way Realty Brickell,Real estate agency,,"444 Brickell Ave Office P32
Open ⋅ Closes 6 PM",+1 305-733-9741
"Douglas Elliman Real Estate Office in South-of-Fifth in Miami Beach, FL",Real estate agency,,"120 Ocean Dr Suite 110
Closes soon ⋅ 5:30 PM ⋅ Opens 9 AM Fri",+1 305-695-6075
Canvas Real Estate - Miami,Real estate agency,,"2125 Biscayne Blvd Suite 266
Closes soon ⋅ 5 PM ⋅ Opens 9 AM Fri",+1 954-332-7121
Taylana Izrailov-Top Realtor-Luxury Real Estate Miami Florida,Real estate consultant,,"323 Sunny Isles Blvd #700
Open ⋅ Closes 6:30 PM",+1 347-233-7872
Trajan Commercial Real Estate,Commercial real estate agency,,"18591 S Dixie Hwy Suite 1097
Open ⋅ Closes 8 PM",+1 305-482-1118
"The Schwartz Team, Compass - South Florida Luxury Real Estate",Real estate agency,,"605 Lincoln Rd 7th floor
Open ⋅ Closes 9 PM",+1 305-439-6628
Miami One Real Estate,Real estate agent,,"1110 Brickell Ave SUITE 805
Open 24 hours",+1 954-990-3150
Miami Real Estate,Condominium complex,,"1001 Brickell Bay Dr #2732
Open ⋅ Closes 8 PM",+1 305-647-2663
DoMi Real Estate Advisors,Real estate agency,,"2 Biscayne Blvd #3200
Closes soon ⋅ 5 PM ⋅ Opens 10 AM Fri",+1 305-646-9096
Cadisa Inc. Miami Property Management Condo HOA,Property management company,,"2050 Coral Wy #402
Closes soon ⋅ 5 PM ⋅ Opens 9 AM Fri",+1 305-860-2935
Richard Jimenez - Mansion Team Brokered by eXp Realty,Real estate agency,,"66 W Flagler St Suit 900
Open ⋅ Closes 6 PM",+1 305-495-5751
"Abemar Beltran Real Estate, Miami Luxury Home Specialist",Real estate agent,,"3105 NW 107th Ave Ste 400
Open ⋅ Closes 6 PM",+1 786-487-1648
Belhouse Real Estate LLC,Real estate agency,,"Infinity, 40 SW 13th St suite # 701
Open ⋅ Closes 6 PM",+1 305-921-9789
GIMEZA A REAL ESTATE CORPORATION,Real estate agency,,"2929 SW 3rd Ave #210
Closes soon ⋅ 5 PM ⋅ Opens 9:30 AM Fri",+1 786-252-4552
Miami Real Estate Production,Photography service,,"2225 Meridian Ave
Open 24 hours",+1 305-859-1910
Zip Code Miami Real Estate,Real estate agency,,"175 SW 7th St
Closes soon ⋅ 5 PM ⋅ Opens 9 AM Mon",+1 305-507-5557
"Komal Acharya - Florida Realtor | KK Luxury Home Group | Miami, FL",Real estate agent,,"2139 N University Dr #2061
Open 24 hours",+1 786-300-1101
Gabriela Luxury Homes | Miami Luxury Real Estate Advisor,Property investment company,"741 Buttonwood Ln
Open ⋅ Closes 6 PM",+1 754-279-4980,
Mauro Silva PA Miami - Fort Lauderdale Realtor,Real estate agency,,"1354 Washington Ave
Open ⋅ Closes 9 PM",+1 786-326-7378
"Home Seller Heaven: We Buy Houses Fast in Miami, FL",Real estate agency,,"11151 NW 36th Ave
Closes soon ⋅ 5 PM ⋅ Opens 9 AM Fri",+1 305-209-5230
Manhattan Miami Real Estate LLC,Real estate agency,,"1688 Meridian Ave
Open ⋅ Closes 7 PM",+1 305-296-8885
Bienvenidos A Florida,Real estate agency,,717 Ponce de Leon #228a,
Andrew Tripodi / The Miami Dream Team / Keyes,Real estate agent,,"8745 SW 136th St
Open ⋅ Closes 9 PM",+1 305-779-1668
Florida Lux Real Estate - Miami Condos Homes For Sale,Real estate agent,,"92 SW 3rd St
Open 24 hours",+1 786-370-8570
Miami Real Estate Agency,Real estate agency,,"930 Washington Ave SUITE 203
Closed ⋅ Opens 8 AM Fri",+1 786-322-8399
"Florida East Coast Realty, LLC",Real estate developer,,"1101 Brickell Ave Suite N-1700
Closes soon ⋅ 5:30 PM ⋅ Opens 8:30 AM Fri",+1 305-358-7710
WIRE Miami | New York Waterfront Investment Real Estate,Real estate agency,,"1902 SW 22nd St #300
Closes soon ⋅ 6 PM ⋅ Opens 9 AM Fri",+1 305-321-7655
"JMC Real Estate Miami, Jorge Martinez de Castro, Licensed Real Estate Broker",Real estate agency,,"9100 S Dadeland Blvd suite 1500
Closed ⋅ Opens 9 AM Fri",+1 305-510-5589
Living in Miami Florida,"Real estate agency
Open 24 hours",+1 954-699-7138,,
"Miami Real Estate Global, Inc.",Real estate agency,,"10530 NW 26th St #102
Open ⋅ Closes 9 PM",+1 786-287-4843
APEX Capital Realty,Commercial real estate agency,,"561 NE 79th St Suite 420
Closes soon ⋅ 6 PM ⋅ Opens 9 AM Fri",+1 305-570-2600
Miami Dreams Realty Inc.,Real estate agency,"227 9th St
Open 24 hours",+1 786-356-4153,
Canvas Real Estate - Miami,Real estate agency,,"2125 Biscayne Blvd Suite 266
Closed ⋅ Opens 9 AM Fri",+1 954-332-7121
Luxury Real Estate | Miami | Jenny Gonzalez,Real estate agency,,"625 Brickell Key Dr
+1 786-486-1617",
Trust Properties Florida,Real estate agency,,"2525 Ponce de Leon Suit 300
+1 305-803-1309",
Cervera Real Estate | South Beach | Miami Beach,Real estate agency,,"1000 South Pointe Dr #100
Closes soon ⋅ 6 PM ⋅ Opens 9 AM Fri",+1 305-604-0565
Premium Estates Realty Corp,Real estate agency,,"1500 NW 89th Ct Ste 115
Closes soon ⋅ 6 PM ⋅ Opens 9 AM Fri",+1 786-326-8843
Grass|Tamayo Real Estate Group,Real estate agency,,"12900 SW 128th St 204 a
Open 24 hours",+1 305-298-8327
Palmer Property Group,Commercial real estate agency,,"1001 Brickell Bay Dr #2700
Closes soon ⋅ 6 PM ⋅ Opens 9 AM Fri",+1 305-741-3056
LoKation Real Estate,Real estate agency,,"1900 N Bayshore Dr Suite 120
Closed ⋅ Opens 8:30 AM Fri",+1 305-420-6613
Host And Keep,Holiday home letting agency,"234 Northeast 3rd Street
Closes soon ⋅ 6 pm ⋅ Opens 9 am Fri",(305) 912-9073,
Diana Tello Miami Real Estate Agent,Real estate agent,,"951 Brickell Ave
Open ⋅ Closes 7 pm",+1 919-200-5027
"First Class Real Estate, LLC",Real estate agency,,"12944 W Dixie Hwy
Open ⋅ Closes 10 pm",+1 305-433-5686
Florida New Dream Corp | Real Estate Agency in North Miami,Real estate agency,,"12955 Biscayne Blvd Ste 410-4
Closed ⋅ Opens 9 am Fri",+1 786-762-4249
"Natalie Mery, Miami Real Estate Agent",Real estate agent,,"398 NE 5th St 13th Floor
Open ⋅ Closes 6:30 pm",+1 305-905-9027
Deconova Real Estate Brickell Miami FL,Real estate agency,,"1000 Brickell Ave SUITE 2D-200
Open ⋅ Closes 5 am Fri",+1 786-581-3100
Avanti Way Realty Brickell,Real estate agency,,"444 Brickell Ave Office P32
Closes soon ⋅ 6 pm ⋅ Opens 9 am Fri",+1 305-733-9741
Gallo Travel Agency,Travel agency,"7214 SW 8th St
Closes soon ⋅ 6 PM ⋅ Opens 10 AM Fri",+1 786-762-2630,
Abner Realty,Real estate agency,,"690 SW 1st Ct
Closes soon ⋅ 6 PM ⋅ Opens 8 AM Fri",+1 305-222-7513
Eric Farmelant - COMPASS,Real estate agent,,"2550 S Bayshore Dr STE 106
Open ⋅ Closes 9 PM",+1 954-850-3905
"Pilar Saravia, Best Miami Realtor",Real estate agency,,"7381 SW 34th Terrace
Open 24 hours",+1 305-205-7379
Midtown Miami Realty,Real estate agent,,"121 NE 34th St
Open ⋅ Closes 9 PM",+1 305-302-4941
Julia Grollier - Realtor Miami Florida,Real estate agent,,"325 S Biscayne Blvd #200
Closes soon ⋅ 6 PM ⋅ Opens 9 AM Fri",+1 321-732-1557
AMG International Realty,Real estate agency,,"2420 Miami Gardens Dr Suite 203
Closes soon ⋅ 6 PM ⋅ Opens 9 AM Fri",+1 305-761-2655
Florida New Dream Corp | Real Estate Agency in North Miami,Real estate agency,,"12955 Biscayne Blvd Ste 410-4
Closed ⋅ Opens 9 AM Fri",+1 786-762-4249
Alexandra Sierra - Miami Real Estate,Real estate agent,,"2550 S Bayshore Dr
Closed ⋅ Opens 9 AM Fri",+1 305-281-0175
COSMORE - Real Estate Agency,Real estate agency,,"1200 Brickell Ave #250
Closes soon ⋅ 6 PM ⋅ Opens 8 AM Fri",+1 786-536-2344
Marcelo Steinmander P.A | Miami Beach Real Estate Agent,Real estate agent,,"419 Arthur Godfrey Rd
Closed ⋅ Opens 9 AM Fri",+1 305-674-4127
Miami Condo Investments,Real estate agency,,"851 NE 1st Ave #3011
Open ⋅ Closes 7 PM",+1 305-428-3860
EXCLUSIVE PREMIER REALTY,Real estate agency,,"1250 SW 27th Ave # 301
Closes soon ⋅ 6 PM ⋅ Opens 9 AM Fri",+1 800-288-5791
"John and Ana Salt, The Salt Group - Real Estate Miami",Real estate agent,,"710 NE 126th St
Closes soon ⋅ 6 PM ⋅ Opens 8 AM Fri",+1 305-890-6003
Marjorie Galeano - Nest Seekers International,Real estate agent,,"888 Biscayne Blvd
Open 24 hours",+1 347-982-6628
The Jills Zeder Group Miami,Real estate agency,,"4000 Ponce de Leon Suite 700
Closes soon ⋅ 6 PM ⋅ Opens 9 AM Fri",+1 305-722-5721
Alex Rojas - Keller Williams Real Estate Agent,Real estate agent,,"2384 SW 4th St
Closes soon ⋅ 6 PM ⋅ Opens 8 AM Fri",+1 786-558-6150
Monteiro International Realty Corp.,Real estate agency,,"1110 Brickell Ave STE 404
Closed ⋅ Opens 9 AM Fri",+1 305-385-6693
"Miami Capstone Realty, Inc.",Real estate agency,,"555 NE 15th St TH5
Open ⋅ Closes 7 PM",+1 516-448-7097
"Marina Arguello, Real Estate Agent",Real estate agent,"7115 Rue Notre Dame
Closes soon ⋅ 6 PM ⋅ Opens 9 AM Fri",+1 786-223-1736,
Dayanne Costa | Real Estate Sales Agent Advisor | Miami & New York,Real estate agent,,"2550 S Bayshore Dr STE 106
Open ⋅ Closes 10 PM",+1 646-598-3588
Real Estate Agent | Wilson Garces,Real estate consultant,,"1010 SW 2nd Ave
Open ⋅ Closes 7:30 PM",+1 305-303-1844
Ernie Fraga - EXP Realty - Miami Real Estate,Real estate agent,"6300 Waterford District Dr
Open ⋅ Closes 8 PM",+1 305-546-8996,
Lorena De Oliveira - Miami Realtor & Insurance Agent,Real estate agent,,"40 SW 13th St #703
Closes soon ⋅ 6 PM ⋅ Opens 9 AM Fri",+1 786-253-6478
Bethany Martinez PA,Real estate agency,,"350 NE 24th St #103
Open ⋅ Closes 10 PM",+1 786-329-9021
Miami Real Estate Broker-Claudia Gonzalez,Real estate agent,,"3059 Grand Ave
Open 24 hours",+1 305-244-3254
Alex Larmier I Miami Real Estate,Real estate agent,,"2550 S Bayshore Dr STE 106
Open ⋅ Closes 7 PM",+1 786-301-5357
Elite Ocean View Realty,Real estate agency,,"210 71st St suite 305
Closed ⋅ Opens 8 AM Fri",+1 305-600-1278
Liz Hogan Group,Real estate agent,,"2550 S Bayshore Dr STE 106
Open 24 hours",+1 305-804-9700
FA Commercial,Commercial real estate agency,,"1390 Brickell Ave #104
Closes soon ⋅ 6 PM ⋅ Opens 9 AM Fri",+1 786-262-3771
Tina Hyde Miami Realty,Real estate agency,,"150 SE 2nd Ave 3rd floor
Closed ⋅ Opens 9 AM Fri",
ELENA GIULIANO MIAMI,Real estate agent,,"1100 S Miami Ave
Closed ⋅ Opens 9 AM Fri",+1 305-748-1437
Trident Real Estate & Trident Management,Real estate agency,"800 West Ave C1
Closed ⋅ Opens 9 AM Fri",+1 305-535-7599,
Catherine Rodstein Real Estate Agent Miami Beach - Luxury Homes & Condos,Real estate agent,,"119 Washington Ave
Open ⋅ Closes 7 PM",+1 786-417-9257
E&L Insurance,Home insurance agency,,"1241 SW 27th Ave
Closed ⋅ Opens 9 AM Fri",+1 305-541-1002
Perfection Travel,Travel agency,,"1300 Collins Ave
Open ⋅ Closes 8 PM",+1 305-363-1588
Yilena Mendoza | Real Estate 55+ en Miami,Real estate agent,,"1700 John F Kennedy Causeway #160
Open 24 hours",+1 786-442-7626
Ricky Garcia TopRealEstateFL.com/miami,Real estate agent,,"200 Biscayne Blvd Way APT 4703
Open ⋅ Closes 8 PM",+1 305-337-4259
Guy Fernandes | Real Estate Broker,Real estate agent,,"1600 SW 1st Ave APT 612
Open 24 hours",+1 305-588-9626
Rebeca Cruz - Miami Realtor,Real estate agent,,"2550 S Bayshore Dr STE 106
Open 24 hours",+1 786-258-6733
Aidelys Hernandez - Real Estate Agent,Real estate agent,,"1250 SW 27th Ave # 301
Open ⋅ Closes 9 PM",+1 305-501-1618
Fortune Real Estate Services,Industrial real estate agency,,"801 Brickell Bay Dr APT 1966
Closes soon ⋅ 6 PM ⋅ Opens 8 AM Fri",+1 305-587-4200
One Sotheby's International Realty,Real estate agency,,"119 Washington Ave Suite 102
Closes soon ⋅ 5:30 PM ⋅ Opens 9 AM Fri",+1 305-538-9711
Jennifer Price | Miami's Luxury Real Estate Ambassador,Real estate agent,,"550 S Dixie Hwy
Open 24 hours",+1 305-389-1977
Paula A. Arias,Real estate agency,,"1110 Brickell Ave STE 208
Closed ⋅ Opens 9 AM Fri",+1 305-922-3108
Engel & Völkers Miami,Real estate agency,,"1717 N Bayshore Dr # 111
Closes soon ⋅ 6 PM ⋅ Opens 10 AM Fri",+1 305-913-5499
REALTOR® | Carlos Gutierrez + Ellen Berkman,Real estate agency,,"1682 Jefferson Ave
Open ⋅ Closes 9 PM",+1 305-710-9655
Mon Appart à Miami (.com) - Immobilier / Real Estate,Real estate agency,,"Realty Group of Miami, 90 Alton Rd #104
+1",954-822-8839
Rachel Glaser The Real Estate Matchmaker Miami,Real estate agent,,"6161 NE 3rd Ave Suit #2
Open ⋅ Closes 8 PM",+1 305-733-9911
Adriana Briceno Miami Realtor,Real estate agent,,"605 Lincoln Rd 7th Floor
+1 346-332-3869",
Miami Real Estate - Miamism Real Estate Sales Team,Real estate agency,,"15805 Biscayne Blvd Suite 307
Open ⋅ Closes 8 PM",+1 305-758-2323
Flat Fee Florida Realty,Real estate agency,,"1801 NE 123rd St Suit 314
Open ⋅ Closes 7 PM",+1 305-305-7872
Belhouse Real Estate LLC,Real estate agency,,"Infinity, 40 SW 13th St suite # 701
Closes soon ⋅ 6 PM ⋅ Opens 8 AM Fri",+1 305-921-9789
